OBJECT_NAME,OBJECT_ID,EPOCH,MEAN_MOTION,ECCENTRICITY,INCLINATION,RA_OF_ASC_NODE,ARG_OF_PERICENTER,MEAN_ANOMALY,EPHEMERIS_TYPE,CLASSIFICATION_TYPE,NORAD_CAT_ID,ELEMENT_SET_NO,REV_AT_EPOCH,BSTAR,MEAN_MOTION_DOT,MEAN_MOTION_DDOT
POLYITAN-1,2014-033AJ,2026-07-12T13:29:41.291808,15.34156417,.0008123,98.0940,222.2395,71.5850,288.6273,0,U,40042,999,65748,.38349E-3,.12606E-3,0
TIGRISAT,2014-033AK,2026-07-12T20:26:40.998624,14.85245810,.00488178,97.7860,343.2807,352.0846,7.9593,0,U,40043,999,64943,.10471974E-3,.861E-5,0
AEROCUBE 6A,2014-033AM,2026-07-12T22:29:16.726560,14.98329984,.00365132,97.7235,0.6171,288.7707,70.9555,0,U,40045,999,65047,.2819647E-3,.3342E-4,0
AEROCUBE 6B,2014-033AN,2026-07-13T05:56:54.412800,14.99787852,.00380099,97.7196,0.7692,276.9619,82.7281,0,U,40046,999,65066,.21881478E-3,.2684E-4,0
CANX-4,2014-034C,2026-07-13T02:10:53.542272,14.81309217,.00114702,98.3087,70.3511,290.4106,69.5873,0,U,40055,999,64836,.67044927E-4,.466E-5,0
CANX-5,2014-034D,2026-07-13T02:08:12.033024,14.81326588,.0011468,98.3089,70.3942,290.6384,69.3597,0,U,40056,999,63917,.6744247E-4,.469E-5,0
UKUBE-1,2014-037F,2026-07-12T22:45:14.591520,15.13931181,.00033236,98.4241,199.9344,92.8108,267.3501,0,U,40074,999,65245,.28622635E-3,.5108E-4,0
BRITE-PL2 (HEWELIUSZ),2014-049B,2026-07-13T00:19:59.957760,14.94683999,.00145416,97.9119,306.2169,29.3912,330.8123,0,U,40119,999,64530,.79659874E-4,.806E-5,0
AEROCUBE 5C,2015-058B,2026-07-11T23:30:30.300768,14.91564017,.01321165,64.7651,185.4549,53.6557,307.6664,0,U,40965,999,36935,.17688434E-3,.1921E-4,0
AEROCUBE 7,2015-058C,2026-07-13T07:24:19.662624,14.95903007,.01219005,64.7607,162.9861,51.4720,309.7246,0,U,40966,999,36986,.2455842E-3,.3017E-4,0
FOX-1A (AO-85),2015-058D,2026-07-13T07:25:39.339840,14.91081487,.0132199,64.7723,197.7955,46.5234,314.6780,0,U,40967,999,11746,.15967051E-3,.1693E-4,0
SINOD-D 1,2015-058E,2026-07-12T09:56:45.843936,14.96071501,.01208123,64.7730,179.9000,43.2193,317.8323,0,U,40968,999,12043,.23567524E-3,.2893E-4,0
SNAP-3 ALICE,2015-058G,2026-07-13T04:58:58.626336,15.66833547,.00243766,64.7493,13.5320,349.7617,10.3032,0,U,40970,999,12095,.87975367E-3,.95871E-3,0
LMRST-SAT,2015-058H,2026-07-13T00:04:32.168640,14.90695751,.01337315,64.7731,195.1350,48.6461,312.6062,0,U,40971,999,11740,.15469601E-3,.1623E-4,0
SNAP-3 EDDIE,2015-058J,2026-07-13T04:14:46.515264,15.68182494,.00252855,64.7400,4.1660,352.3377,7.7382,0,U,40972,999,12309,.90118285E-3,.104018E-2,0
PROPCUBE 3,2015-058K,2026-07-12T21:47:44.136672,14.94405175,.01255727,64.7666,172.1639,49.8739,311.3296,0,U,40973,999,11864,.21404961E-3,.2519E-4,0
BISONSAT,2015-058L,2026-07-13T03:31:35.827680,15.16897055,.00818574,64.7589,89.6667,36.7421,323.9275,0,U,40974,999,11955,.41900735E-3,.8837E-4,0
SNAP-3 JIMI,2015-058M,2026-07-13T06:45:48.238848,15.02592193,.01077173,64.7643,137.1920,45.0565,315.9226,0,U,40975,999,11814,.30462321E-3,.4425E-4,0
PROPCUBE 1 (FLORA),2015-058N,2026-07-13T07:37:15.474144,14.89322265,.01323352,64.7718,214.2440,50.8095,310.4681,0,U,40976,999,12015,.12805143E-3,.1255E-4,0
SINOD-D 3,2015-058P,2026-07-13T00:15:39.513600,14.94163669,.01208833,64.7700,195.1694,47.9878,313.1451,0,U,40977,999,11861,.20885486E-3,.2408E-4,0
RAVAN,2016-067B,2026-07-13T03:40:57.360288,15.57315898,.00019858,97.9849,86.7743,235.0809,125.0258,0,U,41849,999,53173,.52677076E-3,.38477E-3,0
CELTEE 1,2016-067C,2026-07-13T01:57:55.869696,15.19929338,.0002271,98.0642,62.4153,112.8115,247.3358,0,U,41850,999,52981,.14771595E-3,.3097E-4,0
OPTICUBE 04,2016-067D,2026-07-12T12:43:38.944704,15.09765361,.00163612,98.0676,47.1347,36.5014,323.7325,0,U,41851,999,52899,.87500462E-4,.1344E-4,0
AEROCUBE 8D,2016-067E,2026-07-12T21:12:47.115360,15.24750647,.00047066,98.0651,66.0118,62.5706,297.6008,0,U,41852,999,52998,.20042685E-3,.4883E-4,0
AEROCUBE 8C,2016-067F,2026-07-12T13:50:13.043904,15.25001010,.0004548,98.0525,62.8765,351.7275,8.3885,0,U,41853,999,52993,.1879E-3,.4607E-4,0
CORVUS BC2,2017-042X,2026-07-13T07:12:35.244288,15.06452371,.00136644,97.4089,354.6408,29.9717,330.2290,0,U,42846,999,49099,.10169454E-3,.1443E-4,0
CORVUS BC1,2017-042Y,2026-07-12T10:17:22.464672,15.06612257,.0011892,97.4116,354.6330,10.4044,349.7427,0,U,42847,999,49089,.81622653E-4,.1151E-4,0
MAKERSAT 0,2017-073D,2026-07-12T21:44:39.666624,15.32952290,.01053353,97.4593,76.6362,180.4050,179.7125,0,U,43016,999,47040,.3919963E-3,.14826E-3,0
SIRION PATHFINDER-2,2018-099B,2026-07-12T22:42:56.582208,15.14767949,.00082388,97.4243,242.3930,199.6407,160.4509,0,U,43759,999,41652,.16275605E-3,.2956E-4,0
CORVUS BC4,2018-099K,2026-07-12T23:42:57.731616,15.12692886,.00064982,97.4056,236.2140,270.3916,89.6570,0,U,43767,999,41630,.15895104E-3,.2719E-4,0
